[{"OBJECT_NAME":"STARLINK-34815","OBJECT_ID":"2025-167X","EPOCH":"2026-03-09T04:34:40.652256","MEAN_MOTION":15.30192544,"ECCENTRICITY":0.00013054,"INCLINATION":53.1601,"RA_OF_ASC_NODE":28.9619,"ARG_OF_PERICENTER":81.9313,"MEAN_ANOMALY":278.1836,"EPHEMERIS_TYPE":0,"CLASSIFICATION_TYPE":"U","NORAD_CAT_ID":65099,"ELEMENT_SET_NO":999,"REV_AT_EPOCH":3340,"BSTAR":0.00054021084,"MEAN_MOTION_DOT":0.0001567,"MEAN_MOTION_DDOT":0},{"OBJECT_NAME":"USA 17","OBJECT_ID":"1986-014F","EPOCH":"2026-03-09T22:10:30.468864","MEAN_MOTION":13.73458775,"ECCENTRICITY":0.07946653,"INCLINATION":63.303,"RA_OF_ASC_NODE":12.8302,"ARG_OF_PERICENTER":113.8676,"MEAN_ANOMALY":254.7675,"EPHEMERIS_TYPE":0,"CLASSIFICATION_TYPE":"U","NORAD_CAT_ID":16625,"ELEMENT_SET_NO":999,"REV_AT_EPOCH":32918,"BSTAR":0.00045015572,"MEAN_MOTION_DOT":4.832e-5,"MEAN_MOTION_DDOT":0}]
